O3B MPOWER F1           
1 54755U 22174A   24240.24686410 -.00000027  00000+0  00000+0 0  9993
2 54755   0.0571 346.0026 0006650 164.1359 108.8997  5.00113736 32393
